{"type": "FeatureCollection", "features": [{"type": "Feature", "properties": {"norad_id": 2807, "name": "OPS 7218 (TRANSIT 16)", "group": "nnss", "lat": 41.70935093999942, "lon": -5.938139360623238, "alt_km": 1056.175019230649, "timestamp": "2025-12-20T03:42:47.661531+00:00", "meta": {"OBJECT_NAME": "OPS 7218 (TRANSIT 16)", "OBJECT_ID": "1967-048A", "EPOCH": "2025-12-19T10:34:01.367904", "MEAN_MOTION": 13.50723636, "ECCENTRICITY": 0.0022134, "INCLINATION": 89.6731, "RA_OF_ASC_NODE": 353.7939, "ARG_OF_PERICENTER": 96.2167, "MEAN_ANOMALY": 73.8764, "EPHEMERIS_TYPE": 0, "CLASSIFICATION_TYPE": "U", "NORAD_CAT_ID": 2807, "ELEMENT_SET_NO": 999, "REV_AT_EPOCH": 88366, "BSTAR": 0.00015972, "MEAN_MOTION_DOT": 1.13e-06, "MEAN_MOTION_DDOT": 0}, "tle": {"line1": "1 02807U 67048A   25353.44029361  .00000113  00000+0  15972-3 0  9990", "line2": "2 02807  89.6731 353.7939 0022134  96.2167  73.8764 13.50723636883667"}}, "geometry": {"type": "Point", "coordinates": [-5.938139360623238, 41.70935093999942]}}, {"type": "Feature", "properties": {"norad_id": 2965, "name": "OPS 4947 (TRANSIT 17)", "group": "nnss", "lat": 0.8733214715134379, "lon": -156.14136837262993, "alt_km": 1033.386695820559, "timestamp": "2025-12-20T03:42:47.661553+00:00", "meta": {"OBJECT_NAME": "OPS 4947 (TRANSIT 17)", "OBJECT_ID": "1967-092A", "EPOCH": "2025-12-19T20:35:22.100352", "MEAN_MOTION": 13.53455355, "ECCENTRICITY": 0.0046673, "INCLINATION": 89.2488, "RA_OF_ASC_NODE": 23.8927, "ARG_OF_PERICENTER": 213.2944, "MEAN_ANOMALY": 320.6179, "EPHEMERIS_TYPE": 0, "CLASSIFICATION_TYPE": "U", "NORAD_CAT_ID": 2965, "ELEMENT_SET_NO": 999, "REV_AT_EPOCH": 87193, "BSTAR": 0.0001984, "MEAN_MOTION_DOT": 1.45e-06, "MEAN_MOTION_DDOT": 0}, "tle": {"line1": "1 02965U 67092A   25353.85789468  .00000145  00000+0  19840-3 0  9993", "line2": "2 02965  89.2488  23.8927 0046673 213.2944 320.6179 13.53455355871930"}}, "geometry": {"type": "Point", "coordinates": [-156.14136837262993, 0.8733214715134379]}}, {"type": "Feature", "properties": {"norad_id": 3133, "name": "OPS 7034 (TRANSIT 18)", "group": "nnss", "lat": -81.22516666352777, "lon": -86.15659501332989, "alt_km": 1110.1693313512824, "timestamp": "2025-12-20T03:42:47.661567+00:00", "meta": {"OBJECT_NAME": "OPS 7034 (TRANSIT 18)", "OBJECT_ID": "1968-012A", "EPOCH": "2025-12-19T12:58:57.137376", "MEAN_MOTION": 13.51567181, "ECCENTRICITY": 0.007451, "INCLINATION": 90.0283, "RA_OF_ASC_NODE": 273.6582, "ARG_OF_PERICENTER": 149.5169, "MEAN_ANOMALY": 23.9801, "EPHEMERIS_TYPE": 0, "CLASSIFICATION_TYPE": "U", "NORAD_CAT_ID": 3133, "ELEMENT_SET_NO": 999, "REV_AT_EPOCH": 57010, "BSTAR": 0.00014664, "MEAN_MOTION_DOT": 1.07e-06, "MEAN_MOTION_DDOT": 0}, "tle": {"line1": "1 03133U 68012A   25353.54093909  .00000107  00000+0  14664-3 0  9995", "line2": "2 03133  90.0283 273.6582 0074510 149.5169  23.9801 13.51567181570103"}}, "geometry": {"type": "Point", "coordinates": [-86.15659501332989, -81.22516666352777]}}, {"type": "Feature", "properties": {"norad_id": 4507, "name": "NNSS 19 (TRANSIT 19)", "group": "nnss", "lat": -62.02153019755691, "lon": 54.529348859435736, "alt_km": 964.0584868068354, "timestamp": "2025-12-20T03:42:47.661579+00:00", "meta": {"OBJECT_NAME": "NNSS 19 (TRANSIT 19)", "OBJECT_ID": "1970-067A", "EPOCH": "2025-12-19T15:50:32.714304", "MEAN_MOTION": 13.51316405, "ECCENTRICITY": 0.0170265, "INCLINATION": 90.0051, "RA_OF_ASC_NODE": 234.5387, "ARG_OF_PERICENTER": 273.1305, "MEAN_ANOMALY": 85.0378, "EPHEMERIS_TYPE": 0, "CLASSIFICATION_TYPE": "U", "NORAD_CAT_ID": 4507, "ELEMENT_SET_NO": 999, "REV_AT_EPOCH": 72315, "BSTAR": 0.00012385, "MEAN_MOTION_DOT": 9.6e-07, "MEAN_MOTION_DDOT": 0}, "tle": {"line1": "1 04507U 70067A   25353.66010086  .00000096  00000+0  12385-3 0  9997", "line2": "2 04507  90.0051 234.5387 0170265 273.1305  85.0378 13.51316405723155"}}, "geometry": {"type": "Point", "coordinates": [54.529348859435736, -62.02153019755691]}}, {"type": "Feature", "properties": {"norad_id": 6909, "name": "NNSS 20 (TRANSIT 20)", "group": "nnss", "lat": 46.26550169954027, "lon": 74.79263524109058, "alt_km": 963.4098769809252, "timestamp": "2025-12-20T03:42:47.661590+00:00", "meta": {"OBJECT_NAME": "NNSS 20 (TRANSIT 20)", "OBJECT_ID": "1973-081A", "EPOCH": "2025-12-19T11:19:12.247392", "MEAN_MOTION": 13.71437552, "ECCENTRICITY": 0.0156459, "INCLINATION": 89.8562, "RA_OF_ASC_NODE": 254.9533, "ARG_OF_PERICENTER": 58.3821, "MEAN_ANOMALY": 303.2502, "EPHEMERIS_TYPE": 0, "CLASSIFICATION_TYPE": "U", "NORAD_CAT_ID": 6909, "ELEMENT_SET_NO": 999, "REV_AT_EPOCH": 80453, "BSTAR": 0.00023103, "MEAN_MOTION_DOT": 2.38e-06, "MEAN_MOTION_DDOT": 0}, "tle": {"line1": "1 06909U 73081A   25353.47166953  .00000238  00000+0  23103-3 0  9996", "line2": "2 06909  89.8562 254.9533 0156459  58.3821 303.2502 13.71437552804535"}}, "geometry": {"type": "Point", "coordinates": [74.79263524109058, 46.26550169954027]}}, {"type": "Feature", "properties": {"norad_id": 10457, "name": "TRANSAT", "group": "nnss", "lat": -4.900116586724338, "lon": -101.63525775564561, "alt_km": 1061.0777930823215, "timestamp": "2025-12-20T03:42:47.661614+00:00", "meta": {"OBJECT_NAME": "TRANSAT", "OBJECT_ID": "1977-106A", "EPOCH": "2025-12-19T20:17:38.575968", "MEAN_MOTION": 13.48944637, "ECCENTRICITY": 0.002607, "INCLINATION": 89.6481, "RA_OF_ASC_NODE": 78.3455, "ARG_OF_PERICENTER": 169.1194, "MEAN_ANOMALY": 315.2603, "EPHEMERIS_TYPE": 0, "CLASSIFICATION_TYPE": "U", "NORAD_CAT_ID": 10457, "ELEMENT_SET_NO": 999, "REV_AT_EPOCH": 36839, "BSTAR": 0.00011502, "MEAN_MOTION_DOT": 8.2e-07, "MEAN_MOTION_DDOT": 0}, "tle": {"line1": "1 10457U 77106A   25353.84558537  .00000082  00000+0  11502-3 0  9992", "line2": "2 10457  89.6481  78.3455 0026070 169.1194 315.2603 13.48944637368391"}}, "geometry": {"type": "Point", "coordinates": [-101.63525775564561, -4.900116586724338]}}, {"type": "Feature", "properties": {"norad_id": 12458, "name": "NOVA 1", "group": "nnss", "lat": 57.779007990118785, "lon": -88.9532008588463, "alt_km": 1157.0776066749322, "timestamp": "2025-12-20T03:42:47.661627+00:00", "meta": {"OBJECT_NAME": "NOVA 1", "OBJECT_ID": "1981-044A", "EPOCH": "2025-12-19T20:25:06.503808", "MEAN_MOTION": 13.23279025, "ECCENTRICITY": 0.0015871, "INCLINATION": 89.8528, "RA_OF_ASC_NODE": 91.2848, "ARG_OF_PERICENTER": 86.5334, "MEAN_ANOMALY": 28.4106, "EPHEMERIS_TYPE": 0, "CLASSIFICATION_TYPE": "U", "NORAD_CAT_ID": 12458, "ELEMENT_SET_NO": 999, "REV_AT_EPOCH": 15280, "BSTAR": 9.2416e-05, "MEAN_MOTION_DOT": 4.8e-07, "MEAN_MOTION_DDOT": 0}, "tle": {"line1": "1 12458U 81044A   25353.85076972  .00000048  00000+0  92416-4 0  9996", "line2": "2 12458  89.8528  91.2848 0015871  86.5334  28.4106 13.23279025152806"}}, "geometry": {"type": "Point", "coordinates": [-88.9532008588463, 57.779007990118785]}}, {"type": "Feature", "properties": {"norad_id": 15362, "name": "NOVA 3", "group": "nnss", "lat": -11.395930116509726, "lon": 80.64656016634669, "alt_km": 1159.4781216656002, "timestamp": "2025-12-20T03:42:47.661638+00:00", "meta": {"OBJECT_NAME": "NOVA 3", "OBJECT_ID": "1984-110A", "EPOCH": "2025-12-19T11:29:40.293312", "MEAN_MOTION": 13.23045275, "ECCENTRICITY": 0.0030034, "INCLINATION": 90.1221, "RA_OF_ASC_NODE": 80.614, "ARG_OF_PERICENTER": 312.622, "MEAN_ANOMALY": 59.034, "EPHEMERIS_TYPE": 0, "CLASSIFICATION_TYPE": "U", "NORAD_CAT_ID": 15362, "ELEMENT_SET_NO": 999, "REV_AT_EPOCH": 98788, "BSTAR": 9.0213e-05, "MEAN_MOTION_DOT": 4.6e-07, "MEAN_MOTION_DDOT": 0}, "tle": {"line1": "1 15362U 84110A   25353.47893858  .00000046  00000+0  90213-4 0  9999", "line2": "2 15362  90.1221  80.6140 0030034 312.6220  59.0340 13.23045275987882"}}, "geometry": {"type": "Point", "coordinates": [80.64656016634669, -11.395930116509726]}}, {"type": "Feature", "properties": {"norad_id": 15935, "name": "OSCAR 30", "group": "nnss", "lat": 56.43896932940992, "lon": 99.71865169822871, "alt_km": 992.4418333836356, "timestamp": "2025-12-20T03:42:47.661649+00:00", "meta": {"OBJECT_NAME": "OSCAR 30", "OBJECT_ID": "1985-066A", "EPOCH": "2025-12-19T13:06:55.636128", "MEAN_MOTION": 13.3607924, "ECCENTRICITY": 0.0169224, "INCLINATION": 90.1656, "RA_OF_ASC_NODE": 99.9585, "ARG_OF_PERICENTER": 64.9065, "MEAN_ANOMALY": 307.9619, "EPHEMERIS_TYPE": 0, "CLASSIFICATION_TYPE": "U", "NORAD_CAT_ID": 15935, "ELEMENT_SET_NO": 999, "REV_AT_EPOCH": 96544, "BSTAR": 9.8407e-05, "MEAN_MOTION_DOT": 6.5e-07, "MEAN_MOTION_DDOT": 0}, "tle": {"line1": "1 15935U 85066A   25353.54647727  .00000065  00000+0  98407-4 0  9990", "line2": "2 15935  90.1656  99.9585 0169224  64.9065 307.9619 13.36079240965449"}}, "geometry": {"type": "Point", "coordinates": [99.71865169822871, 56.43896932940992]}}, {"type": "Feature", "properties": {"norad_id": 15936, "name": "OSCAR 24", "group": "nnss", "lat": 49.985162979515415, "lon": -87.35003788955788, "alt_km": 1054.975746914598, "timestamp": "2025-12-20T03:42:47.661661+00:00", "meta": {"OBJECT_NAME": "OSCAR 24", "OBJECT_ID": "1985-066B", "EPOCH": "2025-12-19T20:29:27.143232", "MEAN_MOTION": 13.35936665, "ECCENTRICITY": 0.017036, "INCLINATION": 90.1791, "RA_OF_ASC_NODE": 92.4312, "ARG_OF_PERICENTER": 70.4919, "MEAN_ANOMALY": 51.325, "EPHEMERIS_TYPE": 0, "CLASSIFICATION_TYPE": "U", "NORAD_CAT_ID": 15936, "ELEMENT_SET_NO": 999, "REV_AT_EPOCH": 96738, "BSTAR": 9.1696e-05, "MEAN_MOTION_DOT": 6.1e-07, "MEAN_MOTION_DDOT": 0}, "tle": {"line1": "1 15936U 85066B   25353.85378638  .00000061  00000+0  91696-4 0  9996", "line2": "2 15936  90.1791  92.4312 0170360  70.4919  51.3250 13.35936665967387"}}, "geometry": {"type": "Point", "coordinates": [-87.35003788955788, 49.985162979515415]}}]}